,Unnamed: 0,GEO.id,GEO.id2,GEO.display-label,GCT_STUB.target-geo-id,GCT_STUB.target-geo-id2,GCT_STUB.display-label,zip,HD01,HD02,SUBHD0301,SUBHD0302,SUBHD0303,SUBHD0401,SUBHD0402,city,state,latitude,longitude,timezone,dst
0,0,0400000US25,25,Massachusetts,8710000US2501701,2501701,Massachusetts - ZCTA 01701,1701,31217,12590,17.66,0.7,16.96,1840.8,742.4,Framingham,MA,42.318695,-71.42344,-5,1
1,1,0400000US25,25,Massachusetts,8710000US2501730,2501730,Massachusetts - ZCTA 01730,1730,13221,5372,13.88,0.18,13.7,965.2,392.2,Bedford,MA,42.496679,-71.27504,-5,1
2,2,0400000US25,25,Massachusetts,8710000US2501731,2501731,Massachusetts - ZCTA 01731,1731,1396,477,0.79,0.0,0.79,1764.0,602.7,Hanscom AFB,MA,42.459085,-71.27556,-5,1
3,3,0400000US25,25,Massachusetts,8710000US2501741,2501741,Massachusetts - ZCTA 01741,1741,4852,1758,15.51,0.25,15.26,317.9,115.2,Carlisle,MA,42.5286,-71.35084,-5,1
4,4,0400000US25,25,Massachusetts,8710000US2501742,2501742,Massachusetts - ZCTA 01742,1742,17726,6964,25.75,1.31,24.44,725.3,285.0,Concord,MA,42.457201,-71.37478,-5,1
5,5,0400000US25,25,Massachusetts,8710000US2501760,2501760,Massachusetts - ZCTA 01760,1760,32786,14039,15.81,1.0,14.81,2213.7,947.9,Natick,MA,42.290763,-71.35368,-5,1
6,6,0400000US25,25,Massachusetts,8710000US2501770,2501770,Massachusetts - ZCTA 01770,1770,4119,1495,16.19,0.37,15.82,260.4,94.5,Sherborn,MA,42.231025,-71.37202,-5,1
7,7,0400000US25,25,Massachusetts,8710000US2501773,2501773,Massachusetts - ZCTA 01773,1773,5112,2154,14.39,0.77,13.62,375.4,158.2,Lincoln,MA,42.425537,-71.30316,-5,1
8,8,0400000US25,25,Massachusetts,8710000US2501776,2501776,Massachusetts - ZCTA 01776,1776,17659,5951,24.72,0.48,24.24,728.5,245.5,Sudbury,MA,42.38532,-71.42989,-5,1
9,9,0400000US25,25,Massachusetts,8710000US2501778,2501778,Massachusetts - ZCTA 01778,1778,13109,5058,16.01,0.8,15.21,862.0,332.6,Wayland,MA,42.345583,-71.35643,-5,1
10,10,0400000US25,25,Massachusetts,8710000US2501801,2501801,Massachusetts - ZCTA 01801,1801,38903,16737,12.96,0.31,12.65,3074.8,1322.8,Woburn,MA,42.484545,-71.15206,-5,1
11,11,0400000US25,25,Massachusetts,8710000US2501803,2501803,Massachusetts - ZCTA 01803,1803,24487,9664,11.82,0.13,11.7,2093.7,826.3,Burlington,MA,42.506362,-71.20008,-5,1
12,12,0400000US25,25,Massachusetts,8710000US2501821,2501821,Massachusetts - ZCTA 01821,1821,30310,11159,16.96,0.4,16.57,1829.4,673.5,Billerica,MA,42.54805,-71.25054,-5,1
13,13,0400000US25,25,Massachusetts,8710000US2501862,2501862,Massachusetts - ZCTA 01862,1862,10227,3491,9.66,0.42,9.24,1106.7,377.8,North Billerica,MA,42.573592,-71.2911,-5,1
14,14,0400000US25,25,Massachusetts,8710000US2501864,2501864,Massachusetts - ZCTA 01864,1864,14892,5633,13.5,0.36,13.14,1133.3,428.7,North Reading,MA,42.583436,-71.0982,-5,1
15,15,0400000US25,25,Massachusetts,8710000US2501867,2501867,Massachusetts - ZCTA 01867,1867,23956,9187,9.95,0.02,9.94,2411.1,924.6,Reading,MA,42.52585,-71.10993,-5,1
16,16,0400000US25,25,Massachusetts,8710000US2501876,2501876,Massachusetts - ZCTA 01876,1876,28667,10679,20.82,0.36,20.46,1401.4,522.0,Tewksbury,MA,42.601684,-71.22071,-5,1
17,17,0400000US25,25,Massachusetts,8710000US2501880,2501880,Massachusetts - ZCTA 01880,1880,24733,10323,7.45,0.54,6.91,3580.8,1494.5,Wakefield,MA,42.501345,-71.07132,-5,1
18,18,0400000US25,25,Massachusetts,8710000US2501887,2501887,Massachusetts - ZCTA 01887,1887,22325,7808,17.16,0.18,16.98,1315.0,459.9,Wilmington,MA,42.558576,-71.17031,-5,1
19,19,0400000US25,25,Massachusetts,8710000US2501890,2501890,Massachusetts - ZCTA 01890,1890,21382,7988,6.35,0.32,6.03,3546.5,1324.9,Winchester,MA,42.451945,-71.14276,-5,1
20,20,0400000US25,25,Massachusetts,8710000US2501901,2501901,Massachusetts - ZCTA 01901,1901,1689,1034,0.27,0.03,0.25,6821.1,4175.8,Lynn,MA,42.461246,-70.946743,-5,1
21,21,0400000US25,25,Massachusetts,8710000US2501902,2501902,Massachusetts - ZCTA 01902,1902,45139,18354,2.49,0.09,2.4,18784.0,7637.8,Lynn,MA,42.469946,-70.94113,-5,1
22,22,0400000US25,25,Massachusetts,8710000US2501904,2501904,Massachusetts - ZCTA 01904,1904,18203,7182,5.02,0.5,4.52,4026.7,1588.7,Lynn,MA,42.490421,-70.96579,-5,1
23,23,0400000US25,25,Massachusetts,8710000US2501905,2501905,Massachusetts - ZCTA 01905,1905,25251,9187,4.02,0.46,3.56,7093.8,2580.9,Lynn,MA,42.464879,-70.97411,-5,1
24,24,0400000US25,25,Massachusetts,8710000US2501906,2501906,Massachusetts - ZCTA 01906,1906,26660,10786,11.81,1.01,10.8,2468.4,998.7,Saugus,MA,42.462796,-71.0098,-5,1
25,25,0400000US25,25,Massachusetts,8710000US2501907,2501907,Massachusetts - ZCTA 01907,1907,14027,5960,3.46,0.43,3.04,4619.6,1962.9,Swampscott,MA,42.474409,-70.90588,-5,1
26,26,0400000US25,25,Massachusetts,8710000US2501908,2501908,Massachusetts - ZCTA 01908,1908,3410,1677,2.42,1.37,1.05,3260.3,1603.4,Nahant,MA,42.427096,-70.92809,-5,1
27,27,0400000US25,25,Massachusetts,8710000US2501915,2501915,Massachusetts - ZCTA 01915,1915,39502,16641,16.62,1.53,15.09,2617.2,1102.5,Beverly,MA,42.560995,-70.8757,-5,1
28,28,0400000US25,25,Massachusetts,8710000US2501923,2501923,Massachusetts - ZCTA 01923,1923,26342,11135,14.11,0.91,13.2,1995.2,843.4,Danvers,MA,42.569756,-70.94322,-5,1
29,29,0400000US25,25,Massachusetts,8710000US2501937,2501937,Massachusetts - ZCTA 01937,1937,151,0,0.07,0.0,0.07,2066.9,0.0,Hathorne,MA,42.635443,-70.879123,-5,1
30,30,0400000US25,25,Massachusetts,8710000US2501940,2501940,Massachusetts - ZCTA 01940,1940,12108,4729,11.21,0.66,10.55,1147.8,448.3,Lynnfield,MA,42.527895,-71.02834,-5,1
31,31,0400000US25,25,Massachusetts,8710000US2501945,2501945,Massachusetts - ZCTA 01945,1945,19808,8838,7.69,3.3,4.39,4515.8,2014.9,Marblehead,MA,42.497146,-70.86323,-5,1
32,32,0400000US25,25,Massachusetts,8710000US2501949,2501949,Massachusetts - ZCTA 01949,1949,8987,3045,14.48,1.03,13.46,667.9,226.3,Middleton,MA,42.602278,-71.01356,-5,1
33,33,0400000US25,25,Massachusetts,8710000US2501960,2501960,Massachusetts - ZCTA 01960,1960,50944,22024,16.56,0.56,16.0,3184.6,1376.7,Peabody,MA,42.534045,-70.96146,-5,1
34,34,0400000US25,25,Massachusetts,8710000US2501970,2501970,Massachusetts - ZCTA 01970,1970,41109,19063,13.59,5.48,8.11,5069.5,2350.8,Salem,MA,42.516845,-70.8985,-5,1
35,35,0400000US25,25,Massachusetts,8710000US2501984,2501984,Massachusetts - ZCTA 01984,1984,4875,1430,8.14,0.48,7.66,636.4,186.7,Wenham,MA,42.600518,-70.87618,-5,1
36,36,0400000US25,25,Massachusetts,8710000US2502021,2502021,Massachusetts - ZCTA 02021,2021,21561,8762,19.61,0.82,18.8,1147.1,466.1,Canton,MA,42.166776,-71.1343,-5,1
37,37,0400000US25,25,Massachusetts,8710000US2502025,2502025,Massachusetts - ZCTA 02025,2025,7542,2980,10.85,1.07,9.79,770.4,304.4,Cohasset,MA,42.241908,-70.81223,-5,1
38,38,0400000US25,25,Massachusetts,8710000US2502026,2502026,Massachusetts - ZCTA 02026,2026,24711,10184,10.64,0.4,10.24,2412.2,994.1,Dedham,MA,42.244609,-71.16553,-5,1
39,39,0400000US25,25,Massachusetts,8710000US2502030,2502030,Massachusetts - ZCTA 02030,2030,5589,1969,15.43,0.32,15.12,369.7,130.2,Dover,MA,42.23888,-71.28241,-5,1
40,40,0400000US25,25,Massachusetts,8710000US2502032,2502032,Massachusetts - ZCTA 02032,2032,4226,1593,2.4,0.06,2.34,1806.2,680.9,East Walpole,MA,42.153912,-71.21362,-5,1
41,41,0400000US25,25,Massachusetts,8710000US2502043,2502043,Massachusetts - ZCTA 02043,2043,22157,8953,23.02,0.88,22.15,1000.5,404.3,Hingham,MA,42.225708,-70.88764,-5,1
42,42,0400000US25,25,Massachusetts,8710000US2502045,2502045,Massachusetts - ZCTA 02045,2045,10293,5762,8.16,5.5,2.66,3872.4,2167.8,Hull,MA,42.286347,-70.87663,-5,1
43,43,0400000US25,25,Massachusetts,8710000US2502052,2502052,Massachusetts - ZCTA 02052,2052,12024,4237,14.64,0.23,14.4,834.9,294.2,Medfield,MA,42.185571,-71.30476,-5,1
44,44,0400000US25,25,Massachusetts,8710000US2502061,2502061,Massachusetts - ZCTA 02061,2061,10506,3675,21.26,0.32,20.94,501.7,175.5,Norwell,MA,42.15243,-70.8205,-5,1
45,45,0400000US25,25,Massachusetts,8710000US2502062,2502062,Massachusetts - ZCTA 02062,2062,28602,12479,10.52,0.16,10.36,2761.2,1204.7,Norwood,MA,42.185974,-71.20166,-5,1
46,46,0400000US25,25,Massachusetts,8710000US2502066,2502066,Massachusetts - ZCTA 02066,2066,17656,7419,19.12,2.2,16.92,1043.3,438.4,Scituate,MA,42.205038,-70.7513,-5,1
47,47,0400000US25,25,Massachusetts,8710000US2502067,2502067,Massachusetts - ZCTA 02067,2067,17486,6414,23.63,0.95,22.67,771.3,282.9,Sharon,MA,42.113749,-71.17923,-5,1
48,48,0400000US25,25,Massachusetts,8710000US2502072,2502072,Massachusetts - ZCTA 02072,2072,26999,10799,16.47,0.37,16.09,1677.7,671.0,Stoughton,MA,42.125432,-71.10627,-5,1
49,49,0400000US25,25,Massachusetts,8710000US2502081,2502081,Massachusetts - ZCTA 02081,2081,18472,7156,18.47,0.55,17.92,1030.7,399.3,Walpole,MA,42.145237,-71.25375,-5,1
50,50,0400000US25,25,Massachusetts,8710000US2502090,2502090,Massachusetts - ZCTA 02090,2090,14636,5438,11.18,0.29,10.89,1343.5,499.2,Westwood,MA,42.212949,-71.20735,-5,1
51,51,0400000US25,25,Massachusetts,8710000US2502108,2502108,Massachusetts - ZCTA 02108,2108,3825,2278,0.14,0.0,0.14,27919.1,16627.4,Boston,MA,42.357903,-71.06408,-5,1
52,52,0400000US25,25,Massachusetts,8710000US2502109,2502109,Massachusetts - ZCTA 02109,2109,3771,2462,0.29,0.11,0.17,21720.8,14181.0,Boston,MA,42.361477,-71.05417,-5,1
53,53,0400000US25,25,Massachusetts,8710000US2502110,2502110,Massachusetts - ZCTA 02110,2110,1733,1264,0.28,0.09,0.19,9355.4,6823.6,Boston,MA,42.356532,-71.05365,-5,1
54,54,0400000US25,25,Massachusetts,8710000US2502111,2502111,Massachusetts - ZCTA 02111,2111,7383,3628,0.28,0.02,0.26,28541.5,14025.3,Boston,MA,42.349838,-71.06101,-5,1
55,55,0400000US25,25,Massachusetts,8710000US2502113,2502113,Massachusetts - ZCTA 02113,2113,6915,4682,0.1,0.0,0.1,68664.8,46491.5,Boston,MA,42.365028,-71.05636,-5,1
56,56,0400000US25,25,Massachusetts,8710000US2502114,2502114,Massachusetts - ZCTA 02114,2114,11999,7672,0.57,0.12,0.45,26693.9,17067.7,Boston,MA,42.361792,-71.06774,-5,1
57,57,0400000US25,25,Massachusetts,8710000US2502115,2502115,Massachusetts - ZCTA 02115,2115,28441,10838,0.75,0.04,0.71,40159.2,15303.4,Boston,MA,42.34308,-71.09268,-5,1
58,58,0400000US25,25,Massachusetts,8710000US2502116,2502116,Massachusetts - ZCTA 02116,2116,20628,12644,0.73,0.1,0.63,32724.1,20058.3,Boston,MA,42.349622,-71.07372,-5,1
59,59,0400000US25,25,Massachusetts,8710000US2502118,2502118,Massachusetts - ZCTA 02118,2118,26498,12967,1.11,0.01,1.1,24074.6,11781.1,Boston,MA,42.338724,-71.07276,-5,1
60,60,0400000US25,25,Massachusetts,8710000US2502119,2502119,Massachusetts - ZCTA 02119,2119,25346,11048,1.6,0.0,1.6,15871.3,6918.1,Boston,MA,42.324511,-71.08455,-5,1
61,61,0400000US25,25,Massachusetts,8710000US2502120,2502120,Massachusetts - ZCTA 02120,2120,15181,5335,0.62,0.0,0.62,24456.0,8594.5,Boston,MA,42.332099,-71.09651,-5,1
62,62,0400000US25,25,Massachusetts,8710000US2502121,2502121,Massachusetts - ZCTA 02121,2121,25978,10589,1.75,0.01,1.75,14884.4,6067.1,Boston,MA,42.307448,-71.08127,-5,1
63,63,0400000US25,25,Massachusetts,8710000US2502122,2502122,Massachusetts - ZCTA 02122,2122,23479,8887,2.67,0.63,2.03,11553.7,4373.2,Boston,MA,42.296298,-71.05454,-5,1
64,64,0400000US25,25,Massachusetts,8710000US2502124,2502124,Massachusetts - ZCTA 02124,2124,47783,19053,3.07,0.07,3.0,15913.2,6345.2,Boston,MA,42.28713,-71.07156,-5,1
65,65,0400000US25,25,Massachusetts,8710000US2502125,2502125,Massachusetts - ZCTA 02125,2125,33295,13263,2.44,0.31,2.13,15611.3,6218.7,Boston,MA,42.316852,-71.05811,-5,1
66,66,0400000US25,25,Massachusetts,8710000US2502126,2502126,Massachusetts - ZCTA 02126,2126,25562,10151,2.11,0.02,2.08,12277.3,4875.5,Mattapan,MA,42.272098,-71.09426,-5,1
67,67,0400000US25,25,Massachusetts,8710000US2502127,2502127,Massachusetts - ZCTA 02127,2127,31799,16409,2.63,0.61,2.02,15744.4,8124.5,Boston,MA,42.33499,-71.04562,-5,1
68,68,0400000US25,25,Massachusetts,8710000US2502128,2502128,Massachusetts - ZCTA 02128,2128,40508,15854,5.99,1.14,4.85,8352.4,3269.0,Boston,MA,42.378297,-71.0255,-5,1
69,69,0400000US25,25,Massachusetts,8710000US2502129,2502129,Massachusetts - ZCTA 02129,2129,16439,8648,1.84,0.49,1.35,12192.0,6413.8,Charlestown,MA,42.378619,-71.06495,-5,1
70,70,0400000US25,25,Massachusetts,8710000US2502130,2502130,Massachusetts - ZCTA 02130,2130,35401,16016,3.46,0.13,3.33,10617.5,4803.5,Jamaica Plain,MA,42.309998,-71.11171,-5,1
71,71,0400000US25,25,Massachusetts,8710000US2502131,2502131,Massachusetts - ZCTA 02131,2131,29826,12286,2.6,0.0,2.59,11504.8,4739.1,Roslindale,MA,42.284678,-71.13052,-5,1
72,72,0400000US25,25,Massachusetts,8710000US2502132,2502132,Massachusetts - ZCTA 02132,2132,25861,11341,4.66,0.1,4.56,5669.8,2486.4,West Roxbury,MA,42.279432,-71.1598,-5,1
73,73,0400000US25,25,Massachusetts,8710000US2502134,2502134,Massachusetts - ZCTA 02134,2134,21503,9664,1.37,0.05,1.33,16212.0,7286.1,Allston,MA,42.355147,-71.13164,-5,1
74,74,0400000US25,25,Massachusetts,8710000US2502135,2502135,Massachusetts - ZCTA 02135,2135,42780,20834,2.86,0.22,2.63,16236.4,7907.2,Brighton,MA,42.348418,-71.15349,-5,1
75,75,0400000US25,25,Massachusetts,8710000US2502136,2502136,Massachusetts - ZCTA 02136,2136,28488,11092,4.7,0.11,4.59,6206.9,2416.7,Hyde Park,MA,42.252198,-71.12593,-5,1
76,76,0400000US25,25,Massachusetts,8710000US2502138,2502138,Massachusetts - ZCTA 02138,2138,36314,14949,3.06,0.32,2.74,13251.2,5455.0,Cambridge,MA,42.379146,-71.12803,-5,1
77,77,0400000US25,25,Massachusetts,8710000US2502139,2502139,Massachusetts - ZCTA 02139,2139,36349,15402,1.7,0.14,1.56,23354.7,9896.0,Cambridge,MA,42.364347,-71.10431,-5,1
78,78,0400000US25,25,Massachusetts,8710000US2502140,2502140,Massachusetts - ZCTA 02140,2140,17607,8638,1.17,0.02,1.15,15262.0,7487.5,Cambridge,MA,42.393327,-71.12837,-5,1
79,79,0400000US25,25,Massachusetts,8710000US2502141,2502141,Massachusetts - ZCTA 02141,2141,11910,6596,0.65,0.01,0.64,18612.0,10307.7,Cambridge,MA,42.370519,-71.08443,-5,1
80,80,0400000US25,25,Massachusetts,8710000US2502142,2502142,Massachusetts - ZCTA 02142,2142,3141,1794,0.5,0.22,0.28,11359.2,6487.9,Cambridge,MA,42.362297,-71.08412,-5,1
81,81,0400000US25,25,Massachusetts,8710000US2502143,2502143,Massachusetts - ZCTA 02143,2143,24514,11752,1.54,0.01,1.54,15945.2,7644.1,Somerville,MA,42.381929,-71.09908,-5,1
82,82,0400000US25,25,Massachusetts,8710000US2502144,2502144,Massachusetts - ZCTA 02144,2144,23891,11389,1.08,0.0,1.08,22082.2,10526.8,Somerville,MA,42.399546,-71.12165,-5,1
83,83,0400000US25,25,Massachusetts,8710000US2502145,2502145,Massachusetts - ZCTA 02145,2145,25439,10520,1.49,0.09,1.4,18225.1,7536.8,Somerville,MA,42.390846,-71.09225,-5,1
84,84,0400000US25,25,Massachusetts,8710000US2502148,2502148,Massachusetts - ZCTA 02148,2148,59503,25191,5.08,0.04,5.04,11796.9,4994.3,Malden,MA,42.428549,-71.06059,-5,1
85,85,0400000US25,25,Massachusetts,8710000US2502149,2502149,Massachusetts - ZCTA 02149,2149,41550,16662,3.67,0.24,3.43,12127.9,4863.4,Everett,MA,42.409916,-71.0522,-5,1
86,86,0400000US25,25,Massachusetts,8710000US2502150,2502150,Massachusetts - ZCTA 02150,2150,35124,12596,2.45,0.25,2.21,15907.3,5704.6,Chelsea,MA,42.396382,-71.03352,-5,1
87,87,0400000US25,25,Massachusetts,8710000US2502151,2502151,Massachusetts - ZCTA 02151,2151,51808,22125,7.14,1.27,5.87,8833.3,3772.3,Revere,MA,42.416247,-71.00525,-5,1
88,88,0400000US25,25,Massachusetts,8710000US2502152,2502152,Massachusetts - ZCTA 02152,2152,17497,8320,3.16,1.19,1.97,8871.2,4218.4,Winthrop,MA,42.373047,-70.97803,-5,1
89,89,0400000US25,25,Massachusetts,8710000US2502155,2502155,Massachusetts - ZCTA 02155,2155,57964,24032,8.76,0.56,8.2,7071.6,2931.9,Medford,MA,42.419846,-71.10942,-5,1
90,90,0400000US25,25,Massachusetts,8710000US2502163,2502163,Massachusetts - ZCTA 02163,2163,2582,712,0.11,0.01,0.1,26048.5,7183.0,Boston,MA,42.367946,-71.12056,-5,1
91,91,0400000US25,25,Massachusetts,8710000US2502169,2502169,Massachusetts - ZCTA 02169,2169,55055,26481,10.44,1.47,8.97,6136.7,2951.7,Quincy,MA,42.250739,-70.99593,-5,1
92,92,0400000US25,25,Massachusetts,8710000US2502170,2502170,Massachusetts - ZCTA 02170,2170,19505,8041,2.15,0.07,2.08,9364.3,3860.5,Quincy,MA,42.267049,-71.01834,-5,1
93,93,0400000US25,25,Massachusetts,8710000US2502171,2502171,Massachusetts - ZCTA 02171,2171,17711,8316,4.36,1.91,2.45,7214.9,3387.7,Quincy,MA,42.284498,-71.02316,-5,1
94,94,0400000US25,25,Massachusetts,8710000US2502176,2502176,Massachusetts - ZCTA 02176,2176,26983,11751,4.76,0.08,4.68,5767.2,2511.6,Melrose,MA,42.459045,-71.06233,-5,1
95,95,0400000US25,25,Massachusetts,8710000US2502180,2502180,Massachusetts - ZCTA 02180,2180,21437,9458,6.65,0.63,6.02,3561.5,1571.3,Stoneham,MA,42.480145,-71.09835,-5,1
96,96,0400000US25,25,Massachusetts,8710000US2502184,2502184,Massachusetts - ZCTA 02184,2184,35744,14302,14.56,0.81,13.75,2599.8,1040.2,Braintree,MA,42.209555,-70.99968,-5,1
97,97,0400000US25,25,Massachusetts,8710000US2502186,2502186,Massachusetts - ZCTA 02186,2186,27003,9700,13.31,0.3,13.01,2075.5,745.5,Milton,MA,42.253074,-71.07496,-5,1
98,98,0400000US25,25,Massachusetts,8710000US2502188,2502188,Massachusetts - ZCTA 02188,2188,14608,6521,3.87,0.15,3.72,3927.8,1753.4,Weymouth,MA,42.212866,-70.95872,-5,1
99,99,0400000US25,25,Massachusetts,8710000US2502189,2502189,Massachusetts - ZCTA 02189,2189,14559,6292,4.18,0.36,3.82,3806.7,1645.2,Weymouth,MA,42.2112,-70.93111,-5,1
100,100,0400000US25,25,Massachusetts,8710000US2502190,2502190,Massachusetts - ZCTA 02190,2190,16119,6904,7.65,0.53,7.12,2264.4,969.9,Weymouth,MA,42.1711,-70.94597,-5,1
101,101,0400000US25,25,Massachusetts,8710000US2502191,2502191,Massachusetts - ZCTA 02191,2191,8457,3763,3.07,1.05,2.02,4178.2,1859.1,Weymouth,MA,42.242749,-70.94434,-5,1
102,102,0400000US25,25,Massachusetts,8710000US2502199,2502199,Massachusetts - ZCTA 02199,2199,1146,927,0.06,0.0,0.06,19926.9,16118.9,Boston,MA,42.34713,-71.08234,-5,1
103,103,0400000US25,25,Massachusetts,8710000US2502203,2502203,Massachusetts - ZCTA 02203,2203,0,0,0.03,0.0,0.03,0.0,0.0,Boston,MA,42.361485,-71.060364,-5,1
104,104,0400000US25,25,Massachusetts,8710000US2502210,2502210,Massachusetts - ZCTA 02210,2210,2090,1358,1.47,0.54,0.93,2255.8,1465.7,Boston,MA,42.347974,-71.04463,-5,1
105,105,0400000US25,25,Massachusetts,8710000US2502215,2502215,Massachusetts - ZCTA 02215,2215,26125,9324,0.87,0.11,0.76,34190.0,12202.4,Boston,MA,42.346997,-71.10215,-5,1
106,106,0400000US25,25,Massachusetts,8710000US2502301,2502301,Massachusetts - ZCTA 02301,2301,61025,23673,12.6,0.17,12.43,4907.8,1903.8,Brockton,MA,42.0794,-71.03441,-5,1
107,107,0400000US25,25,Massachusetts,8710000US2502302,2502302,Massachusetts - ZCTA 02302,2302,32741,11857,8.92,0.03,8.89,3682.8,1333.7,Brockton,MA,42.08715,-71.00222,-5,1
108,108,0400000US25,25,Massachusetts,8710000US2502322,2502322,Massachusetts - ZCTA 02322,2322,4356,1769,4.54,0.25,4.29,1015.3,412.3,Avon,MA,42.121932,-71.04522,-5,1
109,109,0400000US25,25,Massachusetts,8710000US2502339,2502339,Massachusetts - ZCTA 02339,2339,13879,4852,15.69,0.08,15.61,889.2,310.8,Hanover,MA,42.12867,-70.85913,-5,1
110,110,0400000US25,25,Massachusetts,8710000US2502343,2502343,Massachusetts - ZCTA 02343,2343,10745,4261,7.11,0.11,7.01,1533.6,608.1,Holbrook,MA,42.148351,-71.01037,-5,1
111,111,0400000US25,25,Massachusetts,8710000US2502351,2502351,Massachusetts - ZCTA 02351,2351,16029,6399,9.89,0.24,9.66,1660.1,662.7,Abington,MA,42.119534,-70.94787,-5,1
112,112,0400000US25,25,Massachusetts,8710000US2502368,2502368,Massachusetts - ZCTA 02368,2368,32158,12021,10.66,0.59,10.08,3191.6,1193.0,Randolph,MA,42.173417,-71.04912,-5,1
113,113,0400000US25,25,Massachusetts,8710000US2502370,2502370,Massachusetts - ZCTA 02370,2370,17489,7051,10.39,0.08,10.31,1696.2,683.8,Rockland,MA,42.129513,-70.91189,-5,1
114,114,0400000US25,25,Massachusetts,8710000US2502382,2502382,Massachusetts - ZCTA 02382,2382,14489,5522,6.96,0.02,6.94,2087.8,795.7,Whitman,MA,42.08235,-70.93734,-5,1
115,115,0400000US25,25,Massachusetts,8710000US2502420,2502420,Massachusetts - ZCTA 02420,2420,14052,5251,6.63,0.05,6.58,2134.3,797.5,Lexington,MA,42.452895,-71.21619,-5,1
116,116,0400000US25,25,Massachusetts,8710000US2502421,2502421,Massachusetts - ZCTA 02421,2421,17342,6768,10.01,0.16,9.85,1760.6,687.1,Lexington,MA,42.439295,-71.23553,-5,1
117,117,0400000US25,25,Massachusetts,8710000US2502445,2502445,Massachusetts - ZCTA 02445,2445,20679,8974,2.65,0.05,2.6,7945.4,3448.0,Brookline,MA,42.324397,-71.13933,-5,1
118,118,0400000US25,25,Massachusetts,8710000US2502446,2502446,Massachusetts - ZCTA 02446,2446,29311,14229,1.29,0.0,1.29,22772.3,11054.8,Brookline,MA,42.344747,-71.12141,-5,1
119,119,0400000US25,25,Massachusetts,8710000US2502451,2502451,Massachusetts - ZCTA 02451,2451,17426,7898,6.23,0.71,5.52,3155.4,1430.1,Waltham,MA,42.393029,-71.24771,-5,1
120,120,0400000US25,25,Massachusetts,8710000US2502452,2502452,Massachusetts - ZCTA 02452,2452,14238,5033,3.73,0.03,3.7,3849.1,1360.6,Waltham,MA,42.392496,-71.22153,-5,1
121,121,0400000US25,25,Massachusetts,8710000US2502453,2502453,Massachusetts - ZCTA 02453,2453,28968,11995,3.78,0.28,3.5,8279.5,3428.4,Waltham,MA,42.370446,-71.23563,-5,1
122,122,0400000US25,25,Massachusetts,8710000US2502457,2502457,Massachusetts - ZCTA 02457,2457,1432,90,0.16,0.0,0.16,8975.1,564.1,Babson Park,MA,42.180048,-71.08923,-5,1
123,123,0400000US25,25,Massachusetts,8710000US2502458,2502458,Massachusetts - ZCTA 02458,2458,12131,5341,2.04,0.04,2.0,6058.7,2667.5,Newton,MA,42.354727,-71.18809,-5,1
124,124,0400000US25,25,Massachusetts,8710000US2502459,2502459,Massachusetts - ZCTA 02459,2459,19095,6763,5.09,0.08,5.0,3815.3,1351.3,Newton Center,MA,42.321197,-71.193,-5,1
125,125,0400000US25,25,Massachusetts,8710000US2502460,2502460,Massachusetts - ZCTA 02460,2460,8742,3774,1.35,0.01,1.34,6504.5,2808.0,Newtonville,MA,42.352996,-71.20907,-5,1
126,126,0400000US25,25,Massachusetts,8710000US2502461,2502461,Massachusetts - ZCTA 02461,2461,7059,2771,1.47,0.01,1.45,4852.9,1905.0,Newton Highlands,MA,42.31883,-71.20822,-5,1
127,127,0400000US25,25,Massachusetts,8710000US2502462,2502462,Massachusetts - ZCTA 02462,2462,1554,668,0.56,0.03,0.53,2939.3,1263.5,Newton Lower Falls,MA,42.331646,-71.25761,-5,1
128,128,0400000US25,25,Massachusetts,8710000US2502464,2502464,Massachusetts - ZCTA 02464,2464,2953,1287,0.58,0.01,0.56,5227.2,2278.2,Newton Upper Falls,MA,42.311997,-71.22046,-5,1
129,129,0400000US25,25,Massachusetts,8710000US2502465,2502465,Massachusetts - ZCTA 02465,2465,11710,4520,2.24,0.0,2.24,5220.8,2015.2,West Newton,MA,42.351046,-71.22677,-5,1
130,130,0400000US25,25,Massachusetts,8710000US2502466,2502466,Massachusetts - ZCTA 02466,2466,8096,3090,1.87,0.08,1.79,4520.8,1725.5,Auburndale,MA,42.345833,-71.24735,-5,1
131,131,0400000US25,25,Massachusetts,8710000US2502467,2502467,Massachusetts - ZCTA 02467,2467,22491,7000,4.93,0.05,4.87,4616.3,1436.8,Chestnut Hill,MA,42.321997,-71.17314,-5,1
132,132,0400000US25,25,Massachusetts,8710000US2502468,2502468,Massachusetts - ZCTA 02468,2468,5273,1930,1.5,0.02,1.48,3562.7,1304.0,Waban,MA,42.325247,-71.2319,-5,1
133,133,0400000US25,25,Massachusetts,8710000US2502472,2502472,Massachusetts - ZCTA 02472,2472,32014,15622,4.15,0.12,4.03,7941.7,3875.3,Watertown,MA,42.371296,-71.18196,-5,1
134,134,0400000US25,25,Massachusetts,8710000US2502474,2502474,Massachusetts - ZCTA 02474,2474,26312,12317,3.33,0.27,3.05,8619.9,4035.1,Arlington,MA,42.419496,-71.15635,-5,1
135,135,0400000US25,25,Massachusetts,8710000US2502476,2502476,Massachusetts - ZCTA 02476,2476,16532,7657,2.17,0.07,2.09,7896.8,3657.5,Arlington,MA,42.416745,-71.17761,-5,1
136,136,0400000US25,25,Massachusetts,8710000US2502478,2502478,Massachusetts - ZCTA 02478,2478,24664,10158,4.72,0.07,4.65,5307.8,2186.0,Belmont,MA,42.391546,-71.17471,-5,1
137,137,0400000US25,25,Massachusetts,8710000US2502481,2502481,Massachusetts - ZCTA 02481,2481,16244,5044,5.74,0.1,5.64,2879.1,894.0,Wellesley Hills,MA,42.313329,-71.27649,-5,1
138,138,0400000US25,25,Massachusetts,8710000US2502482,2502482,Massachusetts - ZCTA 02482,2482,10306,4055,4.61,0.4,4.21,2449.2,963.7,Wellesley,MA,42.300096,-71.30336,-5,1
139,139,0400000US25,25,Massachusetts,8710000US2502492,2502492,Massachusetts - ZCTA 02492,2492,19931,7382,9.88,0.35,9.53,2092.0,774.8,Needham,MA,42.278247,-71.23388,-5,1
140,140,0400000US25,25,Massachusetts,8710000US2502493,2502493,Massachusetts - ZCTA 02493,2493,11261,4008,17.33,0.51,16.82,669.3,238.2,Weston,MA,42.358663,-71.28831,-5,1
141,141,0400000US25,25,Massachusetts,8710000US2502494,2502494,Massachusetts - ZCTA 02494,2494,8955,3740,2.85,0.09,2.77,3236.4,1351.7,Needham,MA,42.29813,-71.23154,-5,1
